{
  "type": "FeatureCollection",
  "features": [
    {
      "type": "Feature",
      "properties": {
        "norad_id": 31381,
        "name": "FENGYUN 1C DEB",
        "group": "fengyun-1c-debris",
        "lat": -66.75930514693839,
        "lon": 91.45260512513165,
        "alt_km": 790.8787977987458,
        "timestamp": "2025-12-13T16:48:32.992435+00:00",
        "meta_object_name": "FENGYUN 1C DEB",
        "meta_object_id": "1999-025BSM",
        "meta_epoch": "2025-12-11T11:38:53.452032",
        "meta_mean_motion": 14.37039994,
        "meta_eccentricity": 0.01985983,
        "meta_inclination": 98.4925,
        "meta_ra_of_asc_node": 68.9047,
        "meta_arg_of_pericenter": 35.7153,
        "meta_mean_anomaly": 325.7133,
        "meta_ephemeris_type": 0,
        "meta_classification_type": "U",
        "meta_norad_cat_id": 31381,
        "meta_element_set_no": 999,
        "meta_rev_at_epoch": 97382,
        "meta_bstar": 0.00046825027,
        "meta_mean_motion_dot": 1.693e-05,
        "meta_mean_motion_ddot": 0,
        "tle_line1": "1 31381U 99025BSM 25345.48534088  .00001693  00000+0  46825-3 0  9996",
        "tle_line2": "2 31381  98.4925  68.9047 0198598  35.7153 325.7133 14.37039994973825"
      },
      "geometry": {
        "type": "Point",
        "coordinates": [
          91.45260512513165,
          -66.75930514693839
        ]
      }
    },
    {
      "type": "Feature",
      "properties": {
        "norad_id": 31383,
        "name": "FENGYUN 1C DEB",
        "group": "fengyun-1c-debris",
        "lat": -37.043328206321654,
        "lon": -137.28770731256597,
        "alt_km": 889.4647984703615,
        "timestamp": "2025-12-13T16:48:32.992445+00:00",
        "meta_object_name": "FENGYUN 1C DEB",
        "meta_object_id": "1999-025BSP",
        "meta_epoch": "2025-12-09T02:34:44.796288",
        "meta_mean_motion": 14.05688126,
        "meta_eccentricity": 0.01079363,
        "meta_inclination": 99.068,
        "meta_ra_of_asc_node": 45.0398,
        "meta_arg_of_pericenter": 327.5363,
        "meta_mean_anomaly": 61.476,
        "meta_ephemeris_type": 0,
        "meta_classification_type": "U",
        "meta_norad_cat_id": 31383,
        "meta_element_set_no": 999,
        "meta_rev_at_epoch": 95318,
        "meta_bstar": 0.0010265056,
        "meta_mean_motion_dot": 1.718e-05,
        "meta_mean_motion_ddot": 0,
        "tle_line1": "1 31383U 99025BSP 25343.10746292  .00001718  00000+0  10265-2 0  9993",
        "tle_line2": "2 31383  99.0680  45.0398 0107936 327.5363  61.4760 14.05688126953187"
      },
      "geometry": {
        "type": "Point",
        "coordinates": [
          -137.28770731256597,
          -37.043328206321654
        ]
      }
    },
    {
      "type": "Feature",
      "properties": {
        "norad_id": 31384,
        "name": "FENGYUN 1C DEB",
        "group": "fengyun-1c-debris",
        "lat": -28.58204593796992,
        "lon": 129.02769672074965,
        "alt_km": 1264.9055331509526,
        "timestamp": "2025-12-13T16:48:32.992457+00:00",
        "meta_object_name": "FENGYUN 1C DEB",
        "meta_object_id": "1999-025BSQ",
        "meta_epoch": "2025-12-08T04:13:31.416384",
        "meta_mean_motion": 13.86050931,
        "meta_eccentricity": 0.04406196,
        "meta_inclination": 98.4582,
        "meta_ra_of_asc_node": 308.6672,
        "meta_arg_of_pericenter": 54.2034,
        "meta_mean_anomaly": 322.9436,
        "meta_ephemeris_type": 0,
        "meta_classification_type": "U",
        "meta_norad_cat_id": 31384,
        "meta_element_set_no": 999,
        "meta_rev_at_epoch": 92961,
        "meta_bstar": 0.0028698607,
        "meta_mean_motion_dot": 7.083e-05,
        "meta_mean_motion_ddot": 0,
        "tle_line1": "1 31384U 99025BSQ 25342.17605806  .00007083  00000+0  28699-2 0  9996",
        "tle_line2": "2 31384  98.4582 308.6672 0440619  54.2034 322.9436 13.86050931929613"
      },
      "geometry": {
        "type": "Point",
        "coordinates": [
          129.02769672074965,
          -28.58204593796992
        ]
      }
    },
    {
      "type": "Feature",
      "properties": {
        "norad_id": 31385,
        "name": "FENGYUN 1C DEB",
        "group": "fengyun-1c-debris",
        "lat": -21.436419633642988,
        "lon": -105.64720359691968,
        "alt_km": 832.3928995232736,
        "timestamp": "2025-12-13T16:48:32.992467+00:00",
        "meta_object_name": "FENGYUN 1C DEB",
        "meta_object_id": "1999-025BSR",
        "meta_epoch": "2025-12-11T12:25:21.129888",
        "meta_mean_motion": 14.43996087,
        "meta_eccentricity": 0.01346934,
        "meta_inclination": 98.9541,
        "meta_ra_of_asc_node": 75.6054,
        "meta_arg_of_pericenter": 59.1958,
        "meta_mean_anomaly": 321.1651,
        "meta_ephemeris_type": 0,
        "meta_classification_type": "U",
        "meta_norad_cat_id": 31385,
        "meta_element_set_no": 999,
        "meta_rev_at_epoch": 98597,
        "meta_bstar": 0.00023196707,
        "meta_mean_motion_dot": 8.32e-06,
        "meta_mean_motion_ddot": 0,
        "tle_line1": "1 31385U 99025BSR 25345.51760567  .00000832  00000+0  23197-3 0  9998",
        "tle_line2": "2 31385  98.9541  75.6054 0134693  59.1958 321.1651 14.43996087985976"
      },
      "geometry": {
        "type": "Point",
        "coordinates": [
          -105.64720359691968,
          -21.436419633642988
        ]
      }
    },
    {
      "type": "Feature",
      "properties": {
        "norad_id": 31386,
        "name": "FENGYUN 1C DEB",
        "group": "fengyun-1c-debris",
        "lat": 55.09006905799454,
        "lon": -9.779125972591569,
        "alt_km": 1037.015681777395,
        "timestamp": "2025-12-13T16:48:32.992478+00:00",
        "meta_object_name": "FENGYUN 1C DEB",
        "meta_object_id": "1999-025BSS",
        "meta_epoch": "2025-12-12T23:12:43.665120",
        "meta_mean_motion": 13.86031644,
        "meta_eccentricity": 0.01976774,
        "meta_inclination": 98.4406,
        "meta_ra_of_asc_node": 1.8439,
        "meta_arg_of_pericenter": 283.6931,
        "meta_mean_anomaly": 74.229,
        "meta_ephemeris_type": 0,
        "meta_classification_type": "U",
        "meta_norad_cat_id": 31386,
        "meta_element_set_no": 999,
        "meta_rev_at_epoch": 93865,
        "meta_bstar": 0.002937996,
        "meta_mean_motion_dot": 3.903e-05,
        "meta_mean_motion_ddot": 0,
        "tle_line1": "1 31386U 99025BSS 25346.96717205  .00003903  00000+0  29380-2 0  9991",
        "tle_line2": "2 31386  98.4406   1.8439 0197677 283.6931  74.2290 13.86031644938659"
      },
      "geometry": {
        "type": "Point",
        "coordinates": [
          -9.779125972591569,
          55.09006905799454
        ]
      }
    },
    {
      "type": "Feature",
      "properties": {
        "norad_id": 31387,
        "name": "FENGYUN 1C DEB",
        "group": "fengyun-1c-debris",
        "lat": 32.03252851209938,
        "lon": 51.985629725082624,
        "alt_km": 681.7748643900832,
        "timestamp": "2025-12-13T16:48:32.992488+00:00",
        "meta_object_name": "FENGYUN 1C DEB",
        "meta_object_id": "1999-025BST",
        "meta_epoch": "2025-12-12T21:25:30.712512",
        "meta_mean_motion": 14.13569998,
        "meta_eccentricity": 0.02417277,
        "meta_inclination": 99.1682,
        "meta_ra_of_asc_node": 225.358,
        "meta_arg_of_pericenter": 170.8179,
        "meta_mean_anomaly": 189.7533,
        "meta_ephemeris_type": 0,
        "meta_classification_type": "U",
        "meta_norad_cat_id": 31387,
        "meta_element_set_no": 999,
        "meta_rev_at_epoch": 96299,
        "meta_bstar": 0.00029914626,
        "meta_mean_motion_dot": 6.96e-06,
        "meta_mean_motion_ddot": 0,
        "tle_line1": "1 31387U 99025BST 25346.89271658  .00000696  00000+0  29915-3 0  9992",
        "tle_line2": "2 31387  99.1682 225.3580 0241727 170.8179 189.7533 14.13569998962996"
      },
      "geometry": {
        "type": "Point",
        "coordinates": [
          51.985629725082624,
          32.03252851209938
        ]
      }
    },
    {
      "type": "Feature",
      "properties": {
        "norad_id": 31388,
        "name": "FENGYUN 1C DEB",
        "group": "fengyun-1c-debris",
        "lat": -12.07035579926351,
        "lon": -22.461644044941792,
        "alt_km": 901.475506161185,
        "timestamp": "2025-12-13T16:48:32.992500+00:00",
        "meta_object_name": "FENGYUN 1C DEB",
        "meta_object_id": "1999-025BSU",
        "meta_epoch": "2025-12-10T22:28:10.240896",
        "meta_mean_motion": 14.07424902,
        "meta_eccentricity": 0.0046406,
        "meta_inclination": 98.8049,
        "meta_ra_of_asc_node": 332.9458,
        "meta_arg_of_pericenter": 206.1162,
        "meta_mean_anomaly": 184.0725,
        "meta_ephemeris_type": 0,
        "meta_classification_type": "U",
        "meta_norad_cat_id": 31388,
        "meta_element_set_no": 999,
        "meta_rev_at_epoch": 96416,
        "meta_bstar": 0.00012078,
        "meta_mean_motion_dot": 1.62e-06,
        "meta_mean_motion_ddot": 0,
        "tle_line1": "1 31388U 99025BSU 25344.93622964  .00000162  00000+0  12078-3 0  9996",
        "tle_line2": "2 31388  98.8049 332.9458 0046406 206.1162 184.0725 14.07424902964161"
      },
      "geometry": {
        "type": "Point",
        "coordinates": [
          -22.461644044941792,
          -12.07035579926351
        ]
      }
    }
  ]
}